     2.100          NAVIGATION                              RINEX VERSION / TYPE
fic2rin                                 12/12/2013 00:16:02 PGM / RUN BY / DATE
                                                            END OF HEADER
13 13 12 11 14  0  0.0  .510853715241D-04 -.375166564481D-11  .000000000000D+00
     .980000000000D+02  .598437500000D+02  .426874923911D-08 -.213333835422D+01
     .310875475407D-05  .507429882418D-02  .450946390629D-05  .515366405296D+04
     .309600000000D+06 -.521540641785D-07 -.277787526495D+01  .141561031342D-06
     .979672753908D+00  .302875000000D+03  .219388683215D+01 -.808819404860D-08
     .350014579512D-10  .100000000000D+01  .177000000000D+04  .000000000000D+00
     .240000000000D+01  .000000000000D+00 -.111758708954D-07  .980000000000D+02
     .302406000000D+06  .400000000000D+01
14 13 12 11 14  0  0.0  .208124984056D-03 -.113686837722D-11  .000000000000D+00
     .105000000000D+03  .546250000000D+02  .438589697593D-08 -.185620509750D+01
     .288337469101D-05  .733375502750D-02  .440515577793D-05  .515359342194D+04
     .309600000000D+06  .175088644028D-06 -.280853076304D+01 -.577419996262D-07
     .972293426461D+00  .302562500000D+03 -.198624655978D+01 -.811605235187D-08
     .246438836595D-10  .100000000000D+01  .177000000000D+04  .000000000000D+00
     .340000000000D+01  .000000000000D+00 -.884756445885D-08  .105000000000D+03
     .302406000000D+06  .400000000000D+01
15 13 12 11 14  0  0.0 -.151677988470D-03 -.193267624127D-11  .000000000000D+00
     .310000000000D+02  .633437500000D+02  .510306970619D-08 -.236033997725D+01
     .327639281750D-05  .596429279540D-02  .469014048576D-05  .515361426353D+04
     .309600000000D+06 -.372529029846D-08 -.291494769438D+01 -.484287738800D-07
     .938902325691D+00  .280125000000D+03  .200822881011D+00 -.846820987779D-08
     .102147111980D-09  .100000000000D+01  .177000000000D+04  .000000000000D+00
     .240000000000D+01  .000000000000D+00 -.102445483208D-07  .310000000000D+02
     .302406000000D+06  .400000000000D+01
17 13 12 11 14  0  0.0 -.489545054734D-04 -.352429196937D-11  .000000000000D+00
     .240000000000D+02 -.365625000000D+01  .468626663039D-08 -.165927584318D+01
    -.875443220139D-07  .886084709782D-02  .595860183239D-05  .515371129417D+04
     .309600000000D+06  .145286321640D-06  .301443267179D+00  .316649675369D-07
     .967349759600D+00  .265718750000D+03 -.217085138321D+01 -.803533470394D-08
     .363229415677D-09  .100000000000D+01  .177000000000D+04  .000000000000D+00
     .240000000000D+01  .000000000000D+00 -.107102096081D-07  .240000000000D+02
     .302406000000D+06  .400000000000D+01
18 13 12 11 14  0  0.0  .289861112833D-03  .216004991671D-11  .000000000000D+00
     .310000000000D+02  .589687500000D+02  .533022202514D-08 -.993387923966D-01
     .315345823765D-05  .145877749892D-01  .101234763861D-04  .515365957451D+04
     .309600000000D+06 -.726431608200D-07  .234970503826D+01  .223517417908D-06
     .926372800997D+00  .168906250000D+03 -.206997101017D+01 -.865678916144D-08
    -.136791412197D-09  .100000000000D+01  .177000000000D+04  .000000000000D+00
     .240000000000D+01  .000000000000D+00 -.111758708954D-07  .310000000000D+02
     .302406000000D+06  .400000000000D+01
20 13 12 11 14  0  0.0  .143776182085D-03  .306954461848D-11  .000000000000D+00
     .680000000000D+02  .466562500000D+02  .516914388702D-08  .380390758996D+00
     .246055424213D-05  .588901294395D-02  .109151005745D-04  .515362880898D+04
     .309600000000D+06 -.800937414169D-07  .229646701359D+01  .186264514923D-07
     .927227328020D+00  .150125000000D+03  .129643933310D+01 -.839570685775D-08
    -.168221292806D-09  .100000000000D+01  .177000000000D+04  .000000000000D+00
     .240000000000D+01  .000000000000D+00 -.791624188423D-08  .680000000000D+02
     .302406000000D+06  .400000000000D+01
22 13 12 11 14  0  0.0  .200152862817D-03  .204636307899D-11  .000000000000D+00
     .460000000000D+02  .638750000000D+02  .527771983822D-08 -.653313563395D+00
     .320561230183D-05  .669529777952D-02  .101178884506D-04  .515364853096D+04
     .309600000000D+06 -.428408384323D-07  .235191975579D+01  .109896063805D-06
     .924136941373D+00  .164406250000D+03 -.205264785403D+01 -.851499754097D-08
    -.161078138122D-09  .100000000000D+01  .177000000000D+04  .000000000000D+00
     .240000000000D+01  .000000000000D+00 -.172294676304D-07  .460000000000D+02
     .302406000000D+06  .400000000000D+01
23 13 12 11 14  0  0.0  .224527902901D-04 -.329691829393D-11  .000000000000D+00
     .620000000000D+02  .713437500000D+02  .478269921862D-08 -.288559557291D+01
     .356696546078D-05  .884698587470D-02  .458210706711D-05  .515362164688D+04
     .309600000000D+06 -.126659870148D-06 -.287081946833D+01 -.782310962677D-07
     .953907846548D+00  .288031250000D+03 -.280894312014D+01 -.826855870437D-08
     .960754304987D-10  .100000000000D+01  .177000000000D+04  .000000000000D+00
     .240000000000D+01  .000000000000D+00 -.200234353542D-07  .620000000000D+02
     .302406000000D+06  .400000000000D+01
24 13 12 11 14  0  0.0 -.196280889213D-04 -.682121026330D-12  .000000000000D+00
     .520000000000D+02 -.410312500000D+02  .456161858115D-08  .288824158210D+01
    -.205636024475D-05  .149489007890D-02  .553764402866D-05  .515364164925D+04
     .309600000000D+06 -.298023223877D-07 -.184398200587D+01  .149011611938D-07
     .957801651712D+00  .270031250000D+03  .791832103443D-01 -.826034407649D-08
    -.141791620476D-09  .100000000000D+01  .177000000000D+04  .000000000000D+00
     .240000000000D+01  .000000000000D+00  .279396772385D-08  .520000000000D+02
     .302406000000D+06  .400000000000D+01
25 13 12 11 14  0  0.0  .156229361892D-05  .284217094304D-11  .000000000000D+00
     .900000000000D+02 -.234687500000D+02  .407481258944D-08  .595737035730D+00
    -.140257179737D-05  .285452848766D-02  .981800258160D-05  .515368936920D+04
     .309600000000D+06 -.931322574615D-08 -.791369919345D+00  .875443220139D-07
     .974955609672D+00  .199968750000D+03  .651133852030D+00 -.787818530090D-08
     .243224416988D-09  .100000000000D+01  .177000000000D+04  .000000000000D+00
     .240000000000D+01  .000000000000D+00  .558793544769D-08  .900000000000D+02
     .302406000000D+06  .400000000000D+01
26 13 12 11 14  0  0.0  .225219409913D-03 -.105728759081D-10  .000000000000D+00
     .380000000000D+02  .549687500000D+02  .415017287136D-08 -.289894525483D+01
     .281445682049D-05  .212052351562D-01  .426732003689D-05  .515368377304D+04
     .309600000000D+06  .307336449623D-06 -.278599366885D+01 -.968575477600D-07
     .977096138239D+00  .304000000000D+03  .125654496752D+01 -.776782356103D-08
     .921466954226D-10  .100000000000D+01  .177000000000D+04  .000000000000D+00
     .240000000000D+01  .000000000000D+00 -.605359673500D-08  .380000000000D+02
     .302406000000D+06  .400000000000D+01
27 13 12 11 14  0  0.0 -.716047361493D-05 -.284217094304D-11  .000000000000D+00
     .400000000000D+02  .406250000000D+00  .485163066132D-08 -.195526557120D+01
    -.540167093277D-07  .498520559631D-03  .651367008686D-05  .515366262436D+04
     .309600000000D+06  .372529029846D-08  .256976371206D+00 -.260770320892D-07
     .962027028722D+00  .254843750000D+03  .443195963611D+00 -.820962767823D-08
     .331085219600D-09  .100000000000D+01  .177000000000D+04  .000000000000D+00
     .240000000000D+01  .000000000000D+00  .186264514923D-08  .400000000000D+02
     .302406000000D+06  .400000000000D+01
28 13 12 11 14  0  0.0  .315743498504D-03  .295585778076D-11  .000000000000D+00
     .187000000000D+03 -.211562500000D+02  .393159233803D-08 -.843327865819D+00
    -.869855284691D-06  .191642458085D-01  .986829400063D-05  .515366000366D+04
     .309600000000D+06 -.219792127609D-06 -.726382716824D+00  .264495611191D-06
     .985346478333D+00  .208843750000D+03 -.174781635593D+01 -.799747598412D-08
     .303584074067D-09  .100000000000D+01  .177000000000D+04  .000000000000D+00
     .240000000000D+01  .000000000000D+00 -.107102096081D-07  .187000000000D+03
     .302406000000D+06  .400000000000D+01
29 13 12 11 14  0  0.0  .494332052767D-03  .318323145621D-11  .000000000000D+00
     .830000000000D+02 -.915625000000D+01  .474698344520D-08  .126036162717D+01
    -.426545739174D-06  .150755723007D-02  .635534524918D-05  .515378396225D+04
     .309600000000D+06  .465661287308D-07  .310359221833D+00 -.558793544769D-07
     .968033714764D+00  .264000000000D+03 -.100539742956D+01 -.813283876538D-08
     .284654714154D-09  .100000000000D+01  .177000000000D+04  .000000000000D+00
     .240000000000D+01  .000000000000D+00 -.931322574615D-08  .830000000000D+02
     .302406000000D+06  .400000000000D+01
31 13 12 11 14  0  0.0  .330976676196D-03  .454747350886D-12  .000000000000D+00
     .460000000000D+02 -.543125000000D+02  .401266714369D-08  .182841436898D+01
    -.269152224064D-05  .819229520857D-02  .597909092903D-05  .515373335838D+04
     .309600000000D+06  .968575477600D-07 -.180671791141D+01  .968575477600D-07
     .979311468734D+00  .270875000000D+03 -.708091168897D+00 -.792925885689D-08
    -.303584074067D-09  .100000000000D+01  .177000000000D+04  .000000000000D+00
     .240000000000D+01  .000000000000D+00 -.130385160446D-07  .460000000000D+02
     .302406000000D+06  .400000000000D+01
32 13 12 11 14  0  0.0 -.517994631082D-03  .534328137292D-11  .000000000000D+00
     .420000000000D+02  .659687500000D+02  .455197532233D-08  .233117306706D+01
     .346265733242D-05  .115653444082D-01  .111386179924D-04  .515354771805D+04
     .309600000000D+06 -.484287738800D-07  .244020790493D+01  .214204192162D-06
     .948377043368D+00  .156093750000D+03 -.221235796205D+00 -.797354641593D-08
    -.153577825704D-09  .100000000000D+01  .177000000000D+04  .000000000000D+00
     .240000000000D+01  .000000000000D+00 -.325962901115D-08  .420000000000D+02
     .302406000000D+06  .400000000000D+01
